NORAD_CAT_ID,OBJECT_NAME,OBJECT_TYPE,EPOCH,MEAN_MOTION,ECCENTRICITY,INCLINATION,RA_OF_ASC_NODE,ARG_OF_PERICENTER,MEAN_ANOMALY,BSTAR,MEAN_MOTION_DOT,MEAN_MOTION_DDOT,TLE_LINE0,TLE_LINE1,TLE_LINE2,SEMIMAJOR_AXIS,PERIOD,APOGEE,PERIGEE,DECAYED
53402.0,STARLINK-4499,PAYLOAD,2023-11-18 05:21:35,15.08842116,0.0001594,53.218,306.0976,92.8513,267.2662,7.3731e-05,8.86e-06,0.0,0 STARLINK-4499,1 53402U 22097Q   23322.22332263  .00000886  00000-0  73731-4 0  9996,2 53402  53.2180 306.0976 0001594  92.8513 267.2662 15.08842116 71334,6917.874,95.437,540.842,538.636,0.0
53402.0,STARLINK-4499,PAYLOAD,2023-11-18 16:29:16,15.08844691,0.000164,53.2177,304.0179,87.8905,272.2275,8.6853e-05,1.095e-05,0.0,0 STARLINK-4499,1 53402U 22097Q   23322.68700051  .00001095  00000-0  86853-4 0  9992,2 53402  53.2177 304.0179 0001640  87.8905 272.2275 15.08844691 70913,6917.866,95.437,540.866,538.597,0.0
53402.0,STARLINK-4499,PAYLOAD,2023-11-19 08:23:07,15.08855009,0.0001607,53.2177,301.0428,91.1301,268.9876,0.0001267,1.73e-05,0.0,0 STARLINK-4499,1 53402U 22097Q   23323.34939095  .00001730  00000-0  12670-3 0  9999,2 53402  53.2177 301.0428 0001607  91.1301 268.9876 15.08855009 71014,6917.835,95.437,540.811,538.588,0.0
53402.0,STARLINK-4499,PAYLOAD,2023-11-19 16:20:03,15.0884927,0.0001769,53.2194,299.5544,91.7496,268.3699,6.0071e-05,6.68e-06,0.0,0 STARLINK-4499,1 53402U 22097Q   23323.68059456  .00000668  00000-0  60071-4 0  9998,2 53402  53.2194 299.5544 0001769  91.7496 268.3699 15.08849270 71068,6917.852,95.437,540.941,538.493,0.0
53402.0,STARLINK-4499,PAYLOAD,2023-11-20 03:27:45,15.0884277,0.0001752,53.2184,297.4749,96.121,263.9982,9.2987e-05,1.192e-05,0.0,0 STARLINK-4499,1 53402U 22097Q   23324.14427762  .00001192  00000-0  92987-4 0  9993,2 53402  53.2184 297.4749 0001752  96.1210 263.9982 15.08842770 71138,6917.872,95.437,540.949,538.525,0.0
53402.0,STARLINK-4499,PAYLOAD,2023-11-20 05:03:08,15.08846086,0.0001672,53.2185,297.1782,93.0083,267.1101,8.9964e-05,1.144e-05,0.0,0 STARLINK-4499,1 53402U 22097Q   23324.21051632  .00001144  00000-0  89964-4 0  9998,2 53402  53.2185 297.1782 0001672  93.0083 267.1101 15.08846086 71636,6917.862,95.437,540.883,538.57,0.0
53402.0,STARLINK-4499,PAYLOAD,2023-11-20 22:32:23,15.08843235,0.0001826,53.2192,293.9061,94.3339,265.7861,1.009e-05,-1.28e-06,0.0,0 STARLINK-4499,1 53402U 22097Q   23324.93915934 -.00000128  00000-0  10090-4 0  9997,2 53402  53.2192 293.9061 0001826  94.3339 265.7861 15.08843235 71749,6917.871,95.437,540.999,538.472,0.0
53402.0,STARLINK-4499,PAYLOAD,2023-11-21 08:04:41,15.08847172,0.000171,53.2172,292.1236,92.4391,267.6797,6.2194e-05,7.02e-06,0.0,0 STARLINK-4499,1 53402U 22097Q   23325.33659502  .00000702  00000-0  62194-4 0  9997,2 53402  53.2172 292.1236 0001710  92.4391 267.6797 15.08847172 71317,6917.858,95.437,540.906,538.541,0.0
53402.0,STARLINK-4499,PAYLOAD,2023-11-22 03:09:19,15.08841481,0.0001798,53.2179,288.5542,91.5246,268.5952,0.00010057,1.313e-05,0.0,0 STARLINK-4499,1 53402U 22097Q   23326.13147723  .00001313  00000-0  10057-3 0  9992,2 53402  53.2179 288.5542 0001798  91.5246 268.5952 15.08841481 71431,6917.876,95.437,540.985,538.497,0.0
53402.0,STARLINK-4499,PAYLOAD,2023-11-22 04:44:42,15.08846935,0.0001803,53.2179,288.2563,95.8302,264.2896,0.00014541,2.027e-05,0.0,0 STARLINK-4499,1 53402U 22097Q   23326.19771505  .00002027  00000-0  14541-3 0  9994,2 53402  53.2179 288.2563 0001803  95.8302 264.2896 15.08846935 71932,6917.859,95.437,540.971,538.477,0.0
53402.0,STARLINK-4499,PAYLOAD,2023-11-23 07:46:15,15.08861444,0.000177,53.2169,283.2027,100.6016,259.5175,0.0004307,6.577e-05,0.0,0 STARLINK-4499,1 53402U 22097Q   23327.32378783  .00006577  00000-0  43070-3 0  9994,2 53402  53.2169 283.2027 0001770 100.6016 259.5175 15.08861444 71615,6917.815,95.436,540.904,538.455,0.0
53402.0,STARLINK-4499,PAYLOAD,2023-11-24 02:50:54,15.08828671,0.0001882,53.217,279.6334,118.1729,241.9453,-0.00016941,-2.982e-05,0.0,0 STARLINK-4499,1 53402U 22097Q   23328.11868111 -.00002982  00000-0 -16941-3 0  9996,2 53402  53.2170 279.6334 0001882 118.1729 241.9453 15.08828671 71738,6917.915,95.438,541.082,538.478,0.0
53402.0,STARLINK-4499,PAYLOAD,2023-11-24 04:26:17,15.08826463,0.0001728,53.2171,279.3363,88.0478,272.0712,-0.00013093,-2.37e-05,0.0,0 STARLINK-4499,1 53402U 22097Q   23328.18492482 -.00002370  00000-0 -13093-3 0  9993,2 53402  53.2171 279.3363 0001728  88.0478 272.0712 15.08826463 72239,6917.922,95.438,540.982,538.591,0.0
53402.0,STARLINK-4499,PAYLOAD,2023-11-25 02:41:41,15.08843895,0.0001646,53.2164,275.1738,100.8585,259.2592,0.00066664,0.00010339,0.0,0 STARLINK-4499,1 53402U 22097Q   23329.11228818  .00010339  00000-0  66664-3 0  9991,2 53402  53.2164 275.1738 0001646 100.8585 259.2592 15.08843895 71883,6917.868,95.437,540.872,538.595,0.0
53402.0,STARLINK-4499,PAYLOAD,2023-11-25 05:52:27,15.08859444,0.0001759,53.2172,274.5726,87.9049,272.2145,0.0011216,0.00017617,0.0,0 STARLINK-4499,1 53402U 22097Q   23329.24476570  .00017617  00000-0  11216-2 0  9993,2 53402  53.2172 274.5726 0001759  87.9049 272.2145 15.08859444 72390,6917.821,95.436,540.903,538.469,0.0
53402.0,STARLINK-4499,PAYLOAD,2023-11-26 02:32:27,15.08887959,0.0001741,53.217,270.7154,77.3312,282.7874,0.0017078,0.00027032,0.0,0 STARLINK-4499,1 53402U 22097Q   23330.10587642  .00027032  00000-0  17078-2 0  9997,2 53402  53.2170 270.7154 0001741  77.3312 282.7874 15.08887959 72036,6917.734,95.435,540.803,538.394,0.0
53402.0,STARLINK-4499,PAYLOAD,2023-11-27 00:47:52,15.08824847,0.0001771,53.2178,266.5469,112.3579,247.7601,0.00077371,0.00012042,0.0,0 STARLINK-4499,1 53402U 22097Q   23331.03325104  .00012042  00000-0  77371-3 0  9991,2 53402  53.2178 266.5469 0001771 112.3579 247.7601 15.08824847 72175,6917.927,95.439,541.017,538.567,0.0
53402.0,STARLINK-4499,PAYLOAD,2023-11-27 05:34:02,15.08827235,0.0001386,53.2167,265.6627,112.2832,247.8307,0.00045967,7.033e-05,0.0,0 STARLINK-4499,1 53402U 22097Q   23331.23197316  .00007033  00000-0  45967-3 0  9995,2 53402  53.2167 265.6627 0001386 112.2832 247.8307 15.08827235 72697,6917.919,95.438,540.743,538.826,0.0
53402.0,STARLINK-4499,PAYLOAD,2023-11-28 02:14:03,15.08849418,0.0002466,53.2194,261.7853,75.9687,284.1579,0.0018649,0.00029525,0.0,0 STARLINK-4499,1 53402U 22097Q   23332.09309581  .00029525  00000-0  18649-2 0  9995,2 53402  53.2194 261.7853 0002466  75.9687 284.1579 15.08849418 72331,6917.852,95.437,541.423,538.011,0.0
53402.0,STARLINK-4499,PAYLOAD,2023-11-28 19:43:17,15.08856183,0.0001737,53.2175,258.5253,99.4482,260.6706,0.00052299,8.049e-05,0.0,0 STARLINK-4499,1 53402U 22097Q   23332.82173256  .00008049  00000-0  52299-3 0  9992,2 53402  53.2175 258.5253 0001737  99.4482 260.6706 15.08856183 72442,6917.831,95.437,540.898,538.494,0.0
53402.0,STARLINK-4499,PAYLOAD,2023-11-28 22:54:03,15.08858724,0.0001855,53.218,257.9238,120.462,239.6556,0.00031558,4.74e-05,0.0,0 STARLINK-4499,1 53402U 22097Q   23332.95420960  .00004740  00000-0  31558-3 0  9992,2 53402  53.2180 257.9238 0001855 120.4620 239.6556 15.08858724 72952,6917.823,95.436,540.971,538.405,0.0
53402.0,STARLINK-4499,PAYLOAD,2023-11-29 02:04:49,15.08860226,0.0001812,53.2176,257.3303,116.2837,243.8342,0.00049465,7.597e-05,0.0,0 STARLINK-4499,1 53402U 22097Q   23333.08668873  .00007597  00000-0  49465-3 0  9993,2 53402  53.2176 257.3303 0001812 116.2837 243.8342 15.08860226 72972,6917.819,95.436,540.937,538.43,0.0
53402.0,STARLINK-4499,PAYLOAD,2023-11-30 03:31:00,15.0884993,0.0001604,53.2171,252.5754,100.6761,259.4411,0.00069086,0.00010727,0.0,0 STARLINK-4499,1 53402U 22097Q   23334.14653042  .00010727  00000-0  69086-3 0  9993,2 53402  53.2171 252.5754 0001604 100.6761 259.4411 15.08849930 72649,6917.85,95.437,540.825,538.605,0.0
53402.0,STARLINK-4499,PAYLOAD,2023-12-01 04:57:10,15.08839546,0.0001571,53.2169,247.8152,98.1892,261.9278,0.00055127,8.496e-05,0.0,0 STARLINK-4499,1 53402U 22097Q   23335.20637647  .00008496  00000-0  55127-3 0  9995,2 53402  53.2169 247.8152 0001571  98.1892 261.9278 15.08839546 72803,6917.882,95.438,540.834,538.66,0.0
53402.0,STARLINK-4499,PAYLOAD,2023-12-01 22:26:24,15.08860572,0.0001419,53.2162,244.5443,92.0192,268.0963,0.00072552,0.00011284,0.0,0 STARLINK-4499,1 53402U 22097Q   23335.93500987  .00011284  00000-0  72552-3 0  9991,2 53402  53.2162 244.5443 0001419  92.0192 268.0963 15.08860572 73409,6917.818,95.436,540.664,538.701,0.0
53402.0,STARLINK-4499,PAYLOAD,2023-12-02 00:01:48,15.08865904,0.0001824,53.2157,244.2477,77.3644,282.7552,0.00098545,0.00015441,0.0,0 STARLINK-4499,1 53402U 22097Q   23336.00125005  .00015441  00000-0  98545-3 0  9993,2 53402  53.2157 244.2477 0001824  77.3644 282.7552 15.08865904 72922,6917.801,95.436,540.928,538.404,0.0
53402.0,STARLINK-4499,PAYLOAD,2023-12-02 01:37:11,15.08891414,0.0001485,53.2158,243.9527,75.5916,284.5241,0.0025682,0.0004088,0.0,0 STARLINK-4499,1 53402U 22097Q   23336.06748843  .00040880  00000-0  25682-2 0  9996,2 53402  53.2158 243.9527 0001485  75.5916 284.5241 15.08891414 72931,6917.723,95.434,540.616,538.561,0.0
53402.0,STARLINK-4499,PAYLOAD,2023-12-02 22:17:12,15.08831559,0.0001338,53.2161,240.084,108.7893,251.3245,-0.00013091,-2.37e-05,0.0,0 STARLINK-4499,1 53402U 22097Q   23336.92861406 -.00002370  00000-0 -13091-3 0  9998,2 53402  53.2161 240.0840 0001338 108.7893 251.3245 15.08831559 73550,6917.906,95.438,540.697,538.846,0.0
53402.0,STARLINK-4499,PAYLOAD,2023-12-03 03:03:21,15.08822768,0.0001429,53.2157,239.1925,121.0809,239.0324,-0.00017519,-3.074e-05,0.0,0 STARLINK-4499,1 53402U 22097Q   23337.12733708 -.00003074  00000-0 -17519-3 0  9995,2 53402  53.2157 239.1925 0001429 121.0809 239.0324 15.08822768 73096,6917.933,95.439,540.787,538.809,0.0
53402.0,STARLINK-4499,PAYLOAD,2023-12-04 02:54:09,15.08837518,0.0001473,53.2164,234.7304,105.5646,254.5509,0.00040425,6.151e-05,0.0,0 STARLINK-4499,1 53402U 22097Q   23338.12094583  .00006151  00000-0  40425-3 0  9996,2 53402  53.2164 234.7304 0001473 105.5646 254.5509 15.08837518 73244,6917.888,95.438,540.772,538.734,0.0
